STARLINK-34660          
1 64800U 25150L   26076.20175236 -.00001082  00000+0 -82881-4 0  9991
2 64800  70.0012 115.4541 0003935 270.2929  89.7779 14.98313773 37645
STARLINK-34604          
1 64801U 25150M   26076.21425363  .00003712  00000+0  31867-3 0  9999
2 64801  70.0013 115.4967 0003593 271.2325  88.8423 14.98336857 37644
STARLINK-34658          
1 64802U 25150N   26076.17256091  .00003636  00000+0  31237-3 0  9991
2 64802  70.0013 115.7491 0003319 268.5424  91.5355 14.98323537 37630
STARLINK-34620          
1 64803U 25150P   26076.17270587  .00003041  00000+0  26251-3 0  9998
2 64803  70.0011 115.7477 0003846 268.7218  91.3500 14.98333919 37636
STARLINK-34633          
1 64804U 25150Q   26076.21024546  .00003101  00000+0  26750-3 0  9997
2 64804  70.0014 115.4785 0003210 273.0671  87.0121 14.98337164 37644
STARLINK-34624          
1 64805U 25150R   26076.16420862  .00004100  00000+0  35125-3 0  9999
2 64805  70.0009 115.7227 0003832 270.0946  89.9774 14.98325966 37636
STARLINK-34664          
1 64806U 25150S   26076.18086712  .00002639  00000+0  22881-3 0  9994
2 64806  70.0010 115.3779 0003020 274.1681  85.9133 14.98343048 37644
STARLINK-34663          
1 64807U 25150T   26076.21842825  .00002763  00000+0  23921-3 0  9998
2 64807  70.0015 115.5132 0003692 273.5565  86.5171 14.98335687 37643
STARLINK-34696          
1 64808U 25150U   26076.22260292  .00001459  00000+0  13004-3 0  9994
2 64808  70.0012 115.5245 0003544 270.9064  89.1689 14.98337603 37640
STARLINK-34675          
1 64809U 25150V   26076.21007658 -.00005862  00000+0 -48390-3 0  9999
2 64809  70.0003 115.4817 0004673 291.3493  68.7167 14.98322564 37646
STARLINK-34608          
1 64810U 25150W   26076.19338723  .00003109  00000+0  26825-3 0  9997
2 64810  70.0010 115.4262 0003538 270.5306  89.5448 14.98332971 37647
STARLINK-34669          
1 64811U 25150X   26076.18921011  .00003712  00000+0  31864-3 0  9994
2 64811  70.0012 115.4058 0004275 267.7750  92.2920 14.98335677 37645
STARLINK-34644          
1 64812U 25150Y   26076.16435370  .00003449  00000+0  29669-3 0  9998
2 64812  70.0018 115.6746 0003494 268.2964  91.7795 14.98334896 37638
STARLINK-34685          
1 64813U 25150Z   26076.18105471  .00003044  00000+0  26280-3 0  9994
2 64813  70.0009 115.7755 0003711 268.9049  91.1685 14.98333321 37637
STARLINK-34668          
1 64814U 25150AA  26076.19772586  .00003252  00000+0  28021-3 0  9999
2 64814  70.0012 115.4322 0003219 271.9656  88.1134 14.98334199 37640
STARLINK-34667          
1 64815U 25150AB  26076.21441924  .00002498  00000+0  21704-3 0  9994
2 64815  70.0013 115.4912 0003454 270.7157  89.3606 14.98335669 37641
