[{"OBJECT_NAME":"STARLINK-34660","OBJECT_ID":"2025-150L","EPOCH":"2026-03-17T04:50:31.403904","MEAN_MOTION":14.98313773,"ECCENTRICITY":0.00039352,"INCLINATION":70.0012,"RA_OF_ASC_NODE":115.4541,"ARG_OF_PERICENTER":270.2929,"MEAN_ANOMALY":89.7779,"EPHEMERIS_TYPE":0,"CLASSIFICATION_TYPE":"U","NORAD_CAT_ID":64800,"ELEMENT_SET_NO":999,"REV_AT_EPOCH":3764,"BSTAR":-8.2881439e-5,"MEAN_MOTION_DOT":-1.082e-5,"MEAN_MOTION_DDOT":0},{"OBJECT_NAME":"STARLINK-34604","OBJECT_ID":"2025-150M","EPOCH":"2026-03-17T05:08:31.513632","MEAN_MOTION":14.98336857,"ECCENTRICITY":0.00035935,"INCLINATION":70.0013,"RA_OF_ASC_NODE":115.4967,"ARG_OF_PERICENTER":271.2325,"MEAN_ANOMALY":88.8423,"EPHEMERIS_TYPE":0,"CLASSIFICATION_TYPE":"U","NORAD_CAT_ID":64801,"ELEMENT_SET_NO":999,"REV_AT_EPOCH":3764,"BSTAR":0.00031866516,"MEAN_MOTION_DOT":3.712e-5,"MEAN_MOTION_DDOT":0},{"OBJECT_NAME":"STARLINK-34658","OBJECT_ID":"2025-150N","EPOCH":"2026-03-17T04:08:29.262624","MEAN_MOTION":14.98323537,"ECCENTRICITY":0.00033199,"INCLINATION":70.0013,"RA_OF_ASC_NODE":115.7491,"ARG_OF_PERICENTER":268.5424,"MEAN_ANOMALY":91.5355,"EPHEMERIS_TYPE":0,"CLASSIFICATION_TYPE":"U","NORAD_CAT_ID":64802,"ELEMENT_SET_NO":999,"REV_AT_EPOCH":3763,"BSTAR":0.00031237019,"MEAN_MOTION_DOT":3.636e-5,"MEAN_MOTION_DDOT":0},{"OBJECT_NAME":"STARLINK-34620","OBJECT_ID":"2025-150P","EPOCH":"2026-03-17T04:08:41.787168","MEAN_MOTION":14.98333919,"ECCENTRICITY":0.00038464,"INCLINATION":70.0011,"RA_OF_ASC_NODE":115.7477,"ARG_OF_PERICENTER":268.7218,"MEAN_ANOMALY":91.35,"EPHEMERIS_TYPE":0,"CLASSIFICATION_TYPE":"U","NORAD_CAT_ID":64803,"ELEMENT_SET_NO":999,"REV_AT_EPOCH":3763,"BSTAR":0.00026251153,"MEAN_MOTION_DOT":3.041e-5,"MEAN_MOTION_DDOT":0},{"OBJECT_NAME":"STARLINK-34633","OBJECT_ID":"2025-150Q","EPOCH":"2026-03-17T05:02:45.207744","MEAN_MOTION":14.98337164,"ECCENTRICITY":0.00032109,"INCLINATION":70.0014,"RA_OF_ASC_NODE":115.4785,"ARG_OF_PERICENTER":273.0671,"MEAN_ANOMALY":87.0121,"EPHEMERIS_TYPE":0,"CLASSIFICATION_TYPE":"U","NORAD_CAT_ID":64804,"ELEMENT_SET_NO":999,"REV_AT_EPOCH":3764,"BSTAR":0.00026750056,"MEAN_MOTION_DOT":3.101e-5,"MEAN_MOTION_DDOT":0},{"OBJECT_NAME":"STARLINK-34624","OBJECT_ID":"2025-150R","EPOCH":"2026-03-17T03:56:27.624768","MEAN_MOTION":14.98325966,"ECCENTRICITY":0.00038323,"INCLINATION":70.0009,"RA_OF_ASC_NODE":115.7227,"ARG_OF_PERICENTER":270.0946,"MEAN_ANOMALY":89.9774,"EPHEMERIS_TYPE":0,"CLASSIFICATION_TYPE":"U","NORAD_CAT_ID":64805,"ELEMENT_SET_NO":999,"REV_AT_EPOCH":3763,"BSTAR":0.00035124635,"MEAN_MOTION_DOT":4.1e-5,"MEAN_MOTION_DDOT":0},{"OBJECT_NAME":"STARLINK-34664","OBJECT_ID":"2025-150S","EPOCH":"2026-03-17T04:20:26.919168","MEAN_MOTION":14.98343048,"ECCENTRICITY":0.00030206,"INCLINATION":70.001,"RA_OF_ASC_NODE":115.3779,"ARG_OF_PERICENTER":274.1681,"MEAN_ANOMALY":85.9133,"EPHEMERIS_TYPE":0,"CLASSIFICATION_TYPE":"U","NORAD_CAT_ID":64806,"ELEMENT_SET_NO":999,"REV_AT_EPOCH":3764,"BSTAR":0.00022881356,"MEAN_MOTION_DOT":2.639e-5,"MEAN_MOTION_DDOT":0},{"OBJECT_NAME":"STARLINK-34663","OBJECT_ID":"2025-150T","EPOCH":"2026-03-17T05:14:32.200800","MEAN_MOTION":14.98335687,"ECCENTRICITY":0.0003692,"INCLINATION":70.0015,"RA_OF_ASC_NODE":115.5132,"ARG_OF_PERICENTER":273.5565,"MEAN_ANOMALY":86.5171,"EPHEMERIS_TYPE":0,"CLASSIFICATION_TYPE":"U","NORAD_CAT_ID":64807,"ELEMENT_SET_NO":999,"REV_AT_EPOCH":3764,"BSTAR":0.00023920778,"MEAN_MOTION_DOT":2.763e-5,"MEAN_MOTION_DDOT":0},{"OBJECT_NAME":"STARLINK-34696","OBJECT_ID":"2025-150U","EPOCH":"2026-03-17T05:20:32.892288","MEAN_MOTION":14.98337603,"ECCENTRICITY":0.00035448,"INCLINATION":70.0012,"RA_OF_ASC_NODE":115.5245,"ARG_OF_PERICENTER":270.9064,"MEAN_ANOMALY":89.1689,"EPHEMERIS_TYPE":0,"CLASSIFICATION_TYPE":"U","NORAD_CAT_ID":64808,"ELEMENT_SET_NO":999,"REV_AT_EPOCH":3764,"BSTAR":0.00013004396,"MEAN_MOTION_DOT":1.459e-5,"MEAN_MOTION_DDOT":0},{"OBJECT_NAME":"STARLINK-34675","OBJECT_ID":"2025-150V","EPOCH":"2026-03-17T05:02:30.616512","MEAN_MOTION":14.98322564,"ECCENTRICITY":0.00046732,"INCLINATION":70.0003,"RA_OF_ASC_NODE":115.4817,"ARG_OF_PERICENTER":291.3493,"MEAN_ANOMALY":68.7167,"EPHEMERIS_TYPE":0,"CLASSIFICATION_TYPE":"U","NORAD_CAT_ID":64809,"ELEMENT_SET_NO":999,"REV_AT_EPOCH":3764,"BSTAR":-0.00048390157,"MEAN_MOTION_DOT":-5.862e-5,"MEAN_MOTION_DDOT":0},{"OBJECT_NAME":"STARLINK-34608","OBJECT_ID":"2025-150W","EPOCH":"2026-03-17T04:38:28.656672","MEAN_MOTION":14.98332971,"ECCENTRICITY":0.00035389,"INCLINATION":70.001,"RA_OF_ASC_NODE":115.4262,"ARG_OF_PERICENTER":270.5306,"MEAN_ANOMALY":89.5448,"EPHEMERIS_TYPE":0,"CLASSIFICATION_TYPE":"U","NORAD_CAT_ID":64810,"ELEMENT_SET_NO":999,"REV_AT_EPOCH":3764,"BSTAR":0.00026825288,"MEAN_MOTION_DOT":3.109e-5,"MEAN_MOTION_DDOT":0},{"OBJECT_NAME":"STARLINK-34669","OBJECT_ID":"2025-150X","EPOCH":"2026-03-17T04:32:27.753504","MEAN_MOTION":14.98335677,"ECCENTRICITY":0.00042752,"INCLINATION":70.0012,"RA_OF_ASC_NODE":115.4058,"ARG_OF_PERICENTER":267.775,"MEAN_ANOMALY":92.292,"EPHEMERIS_TYPE":0,"CLASSIFICATION_TYPE":"U","NORAD_CAT_ID":64811,"ELEMENT_SET_NO":999,"REV_AT_EPOCH":3764,"BSTAR":0.00031864237,"MEAN_MOTION_DOT":3.712e-5,"MEAN_MOTION_DDOT":0},{"OBJECT_NAME":"STARLINK-34644","OBJECT_ID":"2025-150Y","EPOCH":"2026-03-17T03:56:40.159680","MEAN_MOTION":14.98334896,"ECCENTRICITY":0.00034942,"INCLINATION":70.0018,"RA_OF_ASC_NODE":115.6746,"ARG_OF_PERICENTER":268.2964,"MEAN_ANOMALY":91.7795,"EPHEMERIS_TYPE":0,"CLASSIFICATION_TYPE":"U","NORAD_CAT_ID":64812,"ELEMENT_SET_NO":999,"REV_AT_EPOCH":3763,"BSTAR":0.000296694,"MEAN_MOTION_DOT":3.449e-5,"MEAN_MOTION_DDOT":0},{"OBJECT_NAME":"STARLINK-34685","OBJECT_ID":"2025-150Z","EPOCH":"2026-03-17T04:20:43.126944","MEAN_MOTION":14.98333321,"ECCENTRICITY":0.00037112,"INCLINATION":70.0009,"RA_OF_ASC_NODE":115.7755,"ARG_OF_PERICENTER":268.9049,"MEAN_ANOMALY":91.1685,"EPHEMERIS_TYPE":0,"CLASSIFICATION_TYPE":"U","NORAD_CAT_ID":64813,"ELEMENT_SET_NO":999,"REV_AT_EPOCH":3763,"BSTAR":0.00026280371,"MEAN_MOTION_DOT":3.044e-5,"MEAN_MOTION_DDOT":0},{"OBJECT_NAME":"STARLINK-34668","OBJECT_ID":"2025-150AA","EPOCH":"2026-03-17T04:44:43.514304","MEAN_MOTION":14.98334199,"ECCENTRICITY":0.0003219,"INCLINATION":70.0012,"RA_OF_ASC_NODE":115.4322,"ARG_OF_PERICENTER":271.9656,"MEAN_ANOMALY":88.1134,"EPHEMERIS_TYPE":0,"CLASSIFICATION_TYPE":"U","NORAD_CAT_ID":64814,"ELEMENT_SET_NO":999,"REV_AT_EPOCH":3764,"BSTAR":0.00028020856,"MEAN_MOTION_DOT":3.252e-5,"MEAN_MOTION_DDOT":0},{"OBJECT_NAME":"STARLINK-34667","OBJECT_ID":"2025-150AB","EPOCH":"2026-03-17T05:08:45.822336","MEAN_MOTION":14.98335669,"ECCENTRICITY":0.00034545,"INCLINATION":70.0013,"RA_OF_ASC_NODE":115.4912,"ARG_OF_PERICENTER":270.7157,"MEAN_ANOMALY":89.3606,"EPHEMERIS_TYPE":0,"CLASSIFICATION_TYPE":"U","NORAD_CAT_ID":64815,"ELEMENT_SET_NO":999,"REV_AT_EPOCH":3764,"BSTAR":0.00021703853,"MEAN_MOTION_DOT":2.498e-5,"MEAN_MOTION_DDOT":0}]
